[{"OBJECT_NAME":"STARLINK-5422","OBJECT_ID":"2022-175AY","EPOCH":"2026-03-09T06:34:29.505504","MEAN_MOTION":15.08836054,"ECCENTRICITY":0.0001453,"INCLINATION":53.2195,"RA_OF_ASC_NODE":30.5034,"ARG_OF_PERICENTER":86.8702,"MEAN_ANOMALY":273.2456,"EPHEMERIS_TYPE":0,"CLASSIFICATION_TYPE":"U","NORAD_CAT_ID":54804,"ELEMENT_SET_NO":999,"REV_AT_EPOCH":18007,"BSTAR":1.0995139e-5,"MEAN_MOTION_DOT":-1.13e-6,"MEAN_MOTION_DDOT":0},{"OBJECT_NAME":"SL-6 R\/B(2)","OBJECT_ID":"1990-055D","EPOCH":"2026-03-09T21:41:59.551872","MEAN_MOTION":15.03595553,"ECCENTRICITY":0.00247741,"INCLINATION":62.7825,"RA_OF_ASC_NODE":253.121,"ARG_OF_PERICENTER":347.1508,"MEAN_ANOMALY":12.8957,"EPHEMERIS_TYPE":0,"CLASSIFICATION_TYPE":"U","NORAD_CAT_ID":20666,"ELEMENT_SET_NO":999,"REV_AT_EPOCH":93822,"BSTAR":0.00020900577,"MEAN_MOTION_DOT":2.688e-5,"MEAN_MOTION_DDOT":0}]
